[Satellite]
VERSION=1.1
NAME=SWISSCUBE
NICKNAME=SWISSCUBE
TLE1=1 35932U 09051B   18020.83665140  .00000131  00000-0  40611-4 0  9992
TLE2=2 35932  98.5226 168.6477 0006659 306.9296  53.1290 14.56112612441958
